{
  "type": "FeatureCollection",
  "features": [
    {
      "type": "Feature",
      "properties": {
        "norad_id": 66802,
        "name": "STARLINK-35604",
        "group": "last-30-days",
        "lat": 40.757488725171974,
        "lon": 0.8423920145065296,
        "alt_km": 308.89654185044037,
        "timestamp": "2025-12-13T07:35:40.338010+00:00",
        "meta_object_name": "STARLINK-35604",
        "meta_object_id": "2025-278M",
        "meta_epoch": "2025-12-12T19:03:50.216544",
        "meta_mean_motion": 15.88185477,
        "meta_eccentricity": 0.00024924,
        "meta_inclination": 42.9971,
        "meta_ra_of_asc_node": 251.7403,
        "meta_arg_of_pericenter": 313.5703,
        "meta_mean_anomaly": 46.4964,
        "meta_ephemeris_type": 0,
        "meta_classification_type": "U",
        "meta_norad_cat_id": 66802,
        "meta_element_set_no": 999,
        "meta_rev_at_epoch": 184,
        "meta_bstar": -0.0082672322,
        "meta_mean_motion_dot": -0.020362,
        "meta_mean_motion_ddot": 0,
        "tle_line1": "1 66802U 25278M   25346.79433121 -.02036200  00000+0 -82672-2 0  9997",
        "tle_line2": "2 66802  42.9971 251.7403 0002492 313.5703  46.4964 15.88185477  1847"
      },
      "geometry": {
        "type": "Point",
        "coordinates": [
          0.8423920145065296,
          40.757488725171974
        ]
      }
    },
    {
      "type": "Feature",
      "properties": {
        "norad_id": 66803,
        "name": "STARLINK-35565",
        "group": "last-30-days",
        "lat": 39.42228320917629,
        "lon": 6.584476158932349,
        "alt_km": 311.16045116709574,
        "timestamp": "2025-12-13T07:35:40.338019+00:00",
        "meta_object_name": "STARLINK-35565",
        "meta_object_id": "2025-278N",
        "meta_epoch": "2025-12-12T19:02:38.302368",
        "meta_mean_motion": 15.88166969,
        "meta_eccentricity": 0.00047766,
        "meta_inclination": 42.9974,
        "meta_ra_of_asc_node": 251.7329,
        "meta_arg_of_pericenter": 311.8639,
        "meta_mean_anomaly": 48.1827,
        "meta_ephemeris_type": 0,
        "meta_classification_type": "U",
        "meta_norad_cat_id": 66803,
        "meta_element_set_no": 999,
        "meta_rev_at_epoch": 184,
        "meta_bstar": -0.0087251966,
        "meta_mean_motion_dot": -0.02134789,
        "meta_mean_motion_ddot": 0,
        "tle_line1": "1 66803U 25278N   25346.79349887 -.02134789  00000+0 -87252-2 0  9993",
        "tle_line2": "2 66803  42.9974 251.7329 0004776 311.8639  48.1827 15.88166969  1846"
      },
      "geometry": {
        "type": "Point",
        "coordinates": [
          6.584476158932349,
          39.42228320917629
        ]
      }
    },
    {
      "type": "Feature",
      "properties": {
        "norad_id": 66804,
        "name": "STARLINK-36038",
        "group": "last-30-days",
        "lat": 39.29704092065474,
        "lon": 7.056365828539796,
        "alt_km": 306.65610926574027,
        "timestamp": "2025-12-13T07:35:40.338027+00:00",
        "meta_object_name": "STARLINK-36038",
        "meta_object_id": "2025-278P",
        "meta_epoch": "2025-12-12T19:02:34.557792",
        "meta_mean_motion": 15.87265533,
        "meta_eccentricity": 0.00023688,
        "meta_inclination": 42.9971,
        "meta_ra_of_asc_node": 251.7329,
        "meta_arg_of_pericenter": 270.0134,
        "meta_mean_anomaly": 90.0468,
        "meta_ephemeris_type": 0,
        "meta_classification_type": "U",
        "meta_norad_cat_id": 66804,
        "meta_element_set_no": 999,
        "meta_rev_at_epoch": 184,
        "meta_bstar": -0.0018007348,
        "meta_mean_motion_dot": -0.00464094,
        "meta_mean_motion_ddot": 0,
        "tle_line1": "1 66804U 25278P   25346.79345553 -.00464094  00000+0 -18007-2 0  9995",
        "tle_line2": "2 66804  42.9971 251.7329 0002368 270.0134  90.0468 15.87265533  1848"
      },
      "geometry": {
        "type": "Point",
        "coordinates": [
          7.056365828539796,
          39.29704092065474
        ]
      }
    },
    {
      "type": "Feature",
      "properties": {
        "norad_id": 66805,
        "name": "STARLINK-36049",
        "group": "last-30-days",
        "lat": 37.010318580810505,
        "lon": 14.48212703750062,
        "alt_km": 309.6414677687453,
        "timestamp": "2025-12-13T07:35:40.338038+00:00",
        "meta_object_name": "STARLINK-36049",
        "meta_object_id": "2025-278Q",
        "meta_epoch": "2025-12-12T23:32:44.003904",
        "meta_mean_motion": 15.87316186,
        "meta_eccentricity": 0.00034347,
        "meta_inclination": 42.9975,
        "meta_ra_of_asc_node": 250.5563,
        "meta_arg_of_pericenter": 251.0843,
        "meta_mean_anomaly": 108.9659,
        "meta_ephemeris_type": 0,
        "meta_classification_type": "U",
        "meta_norad_cat_id": 66805,
        "meta_element_set_no": 999,
        "meta_rev_at_epoch": 187,
        "meta_bstar": -0.0081812723,
        "meta_mean_motion_dot": -0.01943886,
        "meta_mean_motion_ddot": 0,
        "tle_line1": "1 66805U 25278Q   25346.98106486 -.01943886  00000+0 -81813-2 0  9994",
        "tle_line2": "2 66805  42.9975 250.5563 0003434 251.0843 108.9659 15.87316186  1876"
      },
      "geometry": {
        "type": "Point",
        "coordinates": [
          14.48212703750062,
          37.010318580810505
        ]
      }
    },
    {
      "type": "Feature",
      "properties": {
        "norad_id": 66806,
        "name": "STARLINK-36069",
        "group": "last-30-days",
        "lat": 35.90136529063063,
        "lon": 17.493918901576805,
        "alt_km": 293.97972091279735,
        "timestamp": "2025-12-13T07:35:40.338047+00:00",
        "meta_object_name": "STARLINK-36069",
        "meta_object_id": "2025-278R",
        "meta_epoch": "2025-12-12T23:33:28.013472",
        "meta_mean_motion": 15.89964578,
        "meta_eccentricity": 0.00095169,
        "meta_inclination": 42.9955,
        "meta_ra_of_asc_node": 250.5622,
        "meta_arg_of_pericenter": 265.6965,
        "meta_mean_anomaly": 94.2822,
        "meta_ephemeris_type": 0,
        "meta_classification_type": "U",
        "meta_norad_cat_id": 66806,
        "meta_element_set_no": 999,
        "meta_rev_at_epoch": 187,
        "meta_bstar": 0.012088276,
        "meta_mean_motion_dot": 0.03313883,
        "meta_mean_motion_ddot": 0.010113462,
        "tle_line1": "1 66806U 25278R   25346.98157423  .03313883  10113-1  12088-1 0  9995",
        "tle_line2": "2 66806  42.9955 250.5622 0009516 265.6965  94.2822 15.89964578  1879"
      },
      "geometry": {
        "type": "Point",
        "coordinates": [
          17.493918901576805,
          35.90136529063063
        ]
      }
    },
    {
      "type": "Feature",
      "properties": {
        "norad_id": 66807,
        "name": "STARLINK-36000",
        "group": "last-30-days",
        "lat": 34.86609380891975,
        "lon": 20.07689928964744,
        "alt_km": 311.13117709657945,
        "timestamp": "2025-12-13T07:35:40.338058+00:00",
        "meta_object_name": "STARLINK-36000",
        "meta_object_id": "2025-278S",
        "meta_epoch": "2025-12-12T18:59:45.730464",
        "meta_mean_motion": 15.88144314,
        "meta_eccentricity": 0.00044665,
        "meta_inclination": 42.9973,
        "meta_ra_of_asc_node": 251.7173,
        "meta_arg_of_pericenter": 311.7795,
        "meta_mean_anomaly": 48.2697,
        "meta_ephemeris_type": 0,
        "meta_classification_type": "U",
        "meta_norad_cat_id": 66807,
        "meta_element_set_no": 999,
        "meta_rev_at_epoch": 184,
        "meta_bstar": -0.0075543401,
        "meta_mean_motion_dot": -0.01841027,
        "meta_mean_motion_ddot": 0,
        "tle_line1": "1 66807U 25278S   25346.79150151 -.01841027  00000+0 -75543-2 0  9990",
        "tle_line2": "2 66807  42.9973 251.7173 0004466 311.7795  48.2697 15.88144314  1840"
      },
      "geometry": {
        "type": "Point",
        "coordinates": [
          20.07689928964744,
          34.86609380891975
        ]
      }
    },
    {
      "type": "Feature",
      "properties": {
        "norad_id": 66808,
        "name": "STARLINK-36071",
        "group": "last-30-days",
        "lat": 31.15035621070623,
        "lon": 28.005469394552847,
        "alt_km": 299.40985587797604,
        "timestamp": "2025-12-13T07:35:40.338068+00:00",
        "meta_object_name": "STARLINK-36071",
        "meta_object_id": "2025-278T",
        "meta_epoch": "2025-12-12T18:59:04.350048",
        "meta_mean_motion": 15.89377903,
        "meta_eccentricity": 0.00111437,
        "meta_inclination": 42.9964,
        "meta_ra_of_asc_node": 251.7108,
        "meta_arg_of_pericenter": 235.9067,
        "meta_mean_anomaly": 124.0751,
        "meta_ephemeris_type": 0,
        "meta_classification_type": "U",
        "meta_norad_cat_id": 66808,
        "meta_element_set_no": 999,
        "meta_rev_at_epoch": 184,
        "meta_bstar": 0.0022538664,
        "meta_mean_motion_dot": 0.00678433,
        "meta_mean_motion_ddot": 0.0001857259,
        "tle_line1": "1 66808U 25278T   25346.79102257  .00678433  18573-3  22539-2 0  9996",
        "tle_line2": "2 66808  42.9964 251.7108 0011143 235.9067 124.0751 15.89377903  1845"
      },
      "geometry": {
        "type": "Point",
        "coordinates": [
          28.005469394552847,
          31.15035621070623
        ]
      }
    }
  ]
}